SZ-21 MODULE            
1 66515U 25246C   26062.51439913  .00040507  00000+0  35642-3 0  9991
2 66515  41.4734 241.3606 0001453 287.8659  72.2024 15.67986981 17104
SHENZHOU-22             
1 66645U 25272A   26061.80363536  .00017409  00000+0  21017-3 0  9998
2 66645  41.4651 250.0496 0006616 230.1207 129.9050 15.60315912267521
SOYUZ-MS 28             
1 66664U 25275A   26062.44686659  .00009386  00000+0  18180-3 0  9999
2 66664  51.6317 103.2200 0008211 152.5429 207.5995 15.48418100555139
DUPLEX                  
1 66906U 98067XS  26062.35625276  .00032923  00000+0  47371-3 0  9992
2 66906  51.6288 101.1190 0002038  89.0398 271.0826 15.55742662 14141
ISS OBJECT XT           
1 66907U 98067XT  26062.33753348  .00141674  00000+0  12825-2 0  9992
2 66907  51.6251  97.9840 0004568  38.4231 321.7090 15.67089753 14188
ISS OBJECT XU           
1 66908U 98067XU  26062.46368431  .00149295  00000+0  13430-2 0  9992
2 66908  51.6245  97.3227 0004672  43.1438 316.9924 15.67218012 14200
SILVERSAT               
1 66909U 98067XV  26062.34799072  .00179133  00000+0  14568-2 0  9996
2 66909  51.6247  97.2997 0005411  39.2869 320.8520 15.69574615 14192
ISS OBJECT XW           
1 66910U 98067XW  26062.45772056  .00132206  00000+0  12184-2 0  9995
2 66910  51.6243  97.2785 0004870  51.9689 308.1746 15.66680726 14203
ISS OBJECT XX           
1 66911U 98067XX  26062.41982124  .00225432  00000+0  16402-2 0  9992
2 66911  51.6218  96.2644 0006927  45.3691 314.7871 15.72076747 14205
ISS OBJECT XY           
1 66912U 98067XY  26062.31581748  .00087307  00000+0  96247-3 0  9992
2 66912  51.6268  99.3453 0002831  54.0828 306.0429 15.62356640 14151
ISS OBJECT XZ           
1 67683U 98067XZ  26062.41550678  .00040070  00000+0  67495-3 0  9996
2 67683  51.6308 103.0125 0009504 164.7935 195.3341 15.51247194  3817
GXIBA-1                 
1 67684U 98067YA  26062.26849864  .00074906  00000+0  11656-2 0  9990
2 67684  51.6298 103.5313 0010978 154.9471 205.2054 15.53164734  3792
CORAL                   
1 67685U 98067YB  26062.41239131  .00045363  00000+0  75392-3 0  9991
2 67685  51.6313 102.9911 0011498 160.9384 199.2038 15.51543478  3817
ISS OBJECT YC           
1 67686U 98067YC  26062.40877039  .00051568  00000+0  84429-3 0  9991
2 67686  51.6308 102.9692 0007753 129.1230 231.0450 15.51946136  3815
LEOPARD                 
1 67687U 98067YD  26062.41381875  .00042870  00000+0  71815-3 0  9992
2 67687  51.6311 103.0024 0007736 132.4796 227.6848 15.51386771  3732
ISS OBJECT YE           
1 67688U 98067YE  26062.41037585  .00049325  00000+0  81368-3 0  9995
2 67688  51.6313 102.9800 0007700 129.5648 230.6023 15.51755615  3735
CREW DRAGON 12          
1 67796U 26031A   26062.44686659  .00009386  00000+0  18180-3 0  9997
2 67796  51.6317 103.2200 0008211 152.5429 207.5995 15.48418100555103
